NORAD_CAT_ID,OBJECT_NAME,OBJECT_TYPE,EPOCH,MEAN_MOTION,ECCENTRICITY,INCLINATION,RA_OF_ASC_NODE,ARG_OF_PERICENTER,MEAN_ANOMALY,BSTAR,MEAN_MOTION_DOT,MEAN_MOTION_DDOT,TLE_LINE0,TLE_LINE1,TLE_LINE2,SEMIMAJOR_AXIS,PERIOD,APOGEE,PERIGEE,DECAYED
53931.0,STARLINK-5015,PAYLOAD,2023-01-13 14:00:01,15.3828362,0.0001283,53.2135,67.9423,78.76,103.2238,-0.0244659999999999,-0.00863981,0.0,0 STARLINK-5015,1 53931U 22119AX  23013.58334491 -.00863981  00000-0 -24466-1 0  9992,2 53931  53.2135  67.9423 0001283  78.7600 103.2238 15.38283620 17819,6829.321999999999,93.611,452.0630000000001,450.31,0.0
53931.0,STARLINK-5015,PAYLOAD,2023-01-13 22:00:00,15.37636322,0.0001183,53.2138,66.3755,87.7849,140.8114,-0.025525,-0.00881019,0.0,0 STARLINK-5015,1 53931U 22119AX  23013.91667824 -.00881019  00000-0 -25525-1 0  9997,2 53931  53.2138  66.3755 0001183  87.7849 140.8114 15.37636322  1304,6831.238,93.65,453.911,452.295,0.0
53931.0,STARLINK-5015,PAYLOAD,2023-01-14 06:00:00,15.37029368,0.0001210999999999,53.2139,64.8126,90.6053,183.8009,-0.028316,-0.00951706,0.0,0 STARLINK-5015,1 53931U 22119AX  23014.25001157 -.00951706  00000-0 -28316-1 0  9998,2 53931  53.2139  64.8126 0001211  90.6053 183.8009 15.37029368 17912,6833.036,93.687,455.729,454.074,0.0
53931.0,STARLINK-5015,PAYLOAD,2023-01-14 22:00:00,15.35678084,0.0001032999999999,53.2139,61.6903,81.3049,282.4225,-0.026846,-0.00870405,0.0,0 STARLINK-5015,1 53931U 22119AX  23014.91667824 -.00870405  00000-0 -26846-1 0  9992,2 53931  53.2139  61.6903 0001033  81.3049 282.4225 15.35678084 18026,6837.044,93.77,459.615,458.203,0.0
53931.0,STARLINK-5015,PAYLOAD,2023-01-15 14:00:01,15.34387997,0.0001230999999999,53.2137,58.5765,62.696000000000005,27.1974,-0.028326,-0.00880305,0.0,0 STARLINK-5015,1 53931U 22119AX  23015.58334491 -.00880305  00000-0 -28326-1 0  9992,2 53931  53.2137  58.5765 0001231  62.6960  27.1974 15.34387997 18124,6840.876,93.848,463.583,461.899,0.0
53931.0,STARLINK-5015,PAYLOAD,2023-01-15 22:00:01,15.3372429,0.000122,53.2137,57.0192,75.3445,56.5355,-0.0284899999999999,-0.00867883,0.0,0 STARLINK-5015,1 53931U 22119AX  23015.91668981 -.00867883  00000-0 -28490-1 0  9991,2 53931  53.2137  57.0192 0001220  75.3445  56.5355 15.33724290  1300,6842.849,93.889,465.549,463.88,0.0
53931.0,STARLINK-5015,PAYLOAD,2023-01-16 06:00:00,15.33115506,0.0001353,53.2138,55.466,78.3257,94.6117,-0.031901,-0.00945986,0.0,0 STARLINK-5015,1 53931U 22119AX  23016.25001157 -.00945986  00000-0 -31901-1 0  9997,2 53931  53.2138  55.4660 0001353  78.3257  94.6117 15.33115506 18226,6844.661,93.926,467.452,465.6,0.0
53931.0,STARLINK-5015,PAYLOAD,2023-01-16 14:00:01,15.32442042,0.0001317,53.2132,53.9148,76.4473,136.8386,-0.030455,-0.00888962,0.0,0 STARLINK-5015,1 53931U 22119AX  23016.58334491 -.00888962  00000-0 -30455-1 0  9996,2 53931  53.2132  53.9148 0001317  76.4473 136.8386 15.32442042  1308,6846.666,93.968,469.4330000000001,467.629,0.0
53931.0,STARLINK-5015,PAYLOAD,2023-01-16 16:00:00,15.32316833,0.0001147,53.2131,53.5263,79.9864,233.2543,-0.033134,-0.00969402,0.0,0 STARLINK-5015,1 53931U 22119AX  23016.66667824 -.00969402  00000-0 -33134-1 0  9990,2 53931  53.2131  53.5263 0001147  79.9864 233.2543 15.32316833 18284,6847.039000000001,93.975,469.689,468.119,0.0
53931.0,STARLINK-5015,PAYLOAD,2023-01-17 14:00:01,15.30499981,0.0001112,53.2127,49.2668,81.0208,248.6162,-0.03307,-0.00906581,0.0,0 STARLINK-5015,1 53931U 22119AX  23017.58334491 -.00906581  00000-0 -33070-1 0  9991,2 53931  53.2127  49.2668 0001112  81.0208 248.6162 15.30499981 18436,6852.456999999999,94.087,475.084,473.56,0.0
53931.0,STARLINK-5015,PAYLOAD,2023-01-17 22:00:00,15.29816269,0.0001088,53.2126,47.7188,93.3711,273.5034,-0.031996,-0.00862372,0.0,0 STARLINK-5015,1 53931U 22119AX  23017.91667824 -.00862372  00000-0 -31996-1 0  9991,2 53931  53.2126  47.7188 0001088  93.3711 273.5034 15.29816269  1305,6854.4980000000005,94.129,477.109,475.617,0.0
53931.0,STARLINK-5015,PAYLOAD,2023-01-18 06:00:00,15.29206125,0.0001192,53.2127,46.1752,86.8217,316.4809,-0.035816,-0.0095217,0.0,0 STARLINK-5015,1 53931U 22119AX  23018.25001157 -.00952170  00000-0 -35816-1 0  9991,2 53931  53.2127  46.1752 0001192  86.8217 316.4809 15.29206125 18534,6856.321,94.167,479.003,477.369,0.0
53931.0,STARLINK-5015,PAYLOAD,2023-01-18 14:00:01,15.28552088,0.0001196,53.2121,44.6326,74.5486,4.4028,-0.035521,-0.00927354,0.0,0 STARLINK-5015,1 53931U 22119AX  23018.58334491 -.00927354  00000-0 -35521-1 0  9996,2 53931  53.2121  44.6326 0001196  74.5486   4.4028 15.28552088  1309,6858.276999999999,94.207,480.962,479.322,0.0
53931.0,STARLINK-5015,PAYLOAD,2023-01-18 22:00:00,15.27863721,0.0001202,53.2121,43.0891,89.4553,24.3868,-0.0340139999999999,-0.00863067,0.0,0 STARLINK-5015,1 53931U 22119AX  23018.91667824 -.00863067  00000-0 -34014-1 0  9998,2 53931  53.2121  43.0891 0001202  89.4553  24.3868 15.27863721 18632,6860.337,94.249,483.026,481.377,0.0
53931.0,STARLINK-5015,PAYLOAD,2023-01-19 14:00:01,15.26607904,0.0001338,53.2116,40.0119,82.4192,98.8044,-0.038425,-0.00943891,0.0,0 STARLINK-5015,1 53931U 22119AX  23019.58334491 -.00943891  00000-0 -38425-1 0  9997,2 53931  53.2116  40.0119 0001338  82.4192  98.8044 15.26607904 18739,6864.098000000001,94.327,486.882,485.045,0.0
53931.0,STARLINK-5015,PAYLOAD,2023-01-20 16:00:00,15.24506001,0.0001072,53.2113,35.0209,85.1376,288.9376,-0.0426459999999999,-0.00979997,0.0,0 STARLINK-5015,1 53931U 22119AX  23020.66667824 -.00979997  00000-0 -42646-1 0  9993,2 53931  53.2113  35.0209 0001072  85.1376 288.9376 15.24506001  1308,6870.406,94.457,493.008,491.535,0.0
53931.0,STARLINK-5015,PAYLOAD,2023-01-20 22:00:00,15.23955981,0.0001112,53.2112,33.8703,101.1181,205.5363,-0.037961,-0.00856094,0.0,0 STARLINK-5015,1 53931U 22119AX  23020.91667824 -.00856094  00000-0 -37961-1 0  9997,2 53931  53.2112  33.8703 0001112 101.1181 205.5363 15.23955981 18932,6872.059,94.491,494.6880000000001,493.16,0.0
53931.0,STARLINK-5015,PAYLOAD,2023-01-21 14:00:01,15.22706651,8.6e-05,53.2109,30.811,84.4356,280.2141,-0.043844,-0.00956569,0.0,0 STARLINK-5015,1 53931U 22119AX  23021.58334491 -.00956569  00000-0 -43844-1 0  9997,2 53931  53.2109  30.8110 0000860  84.4356 280.2141 15.22706651 19047,6875.818,94.568,498.274,497.091,0.0
53931.0,STARLINK-5015,PAYLOAD,2023-01-22 06:00:00,15.21376933,0.0001231999999999,53.2111,27.7562,88.8328,330.7147,-0.043929,-0.00923974,0.0,0 STARLINK-5015,1 53931U 22119AX  23022.25001157 -.00923974  00000-0 -43929-1 0  9990,2 53931  53.2111  27.7562 0001232  88.8328 330.7147 15.21376933 19140,6879.823,94.651,502.536,500.841,0.0
53931.0,STARLINK-5015,PAYLOAD,2023-01-23 06:00:02,15.19417738,0.0001353,53.2111,23.1855,88.9334,47.1384,-0.0459529999999999,-0.00913363,0.0,0 STARLINK-5015,1 53931U 22119AX  23023.25002315 -.00913363  00000-0 -45953-1 0  9998,2 53931  53.2111  23.1855 0001353  88.9334  47.1384 15.19417738 19291,6885.736,94.773,508.533,506.67,0.0
53931.0,STARLINK-5015,PAYLOAD,2023-01-24 06:00:00,15.17460876,0.0001409,53.211000000000006,18.6289,84.895,120.5318,-0.048124,-0.00904393,0.0,0 STARLINK-5015,1 53931U 22119AX  23024.25001157 -.00904393  00000-0 -48124-1 0  9998,2 53931  53.2110  18.6289 0001409  84.8950 120.5318 15.17460876 19440,6891.655,94.895,514.491,512.549,0.0
53931.0,STARLINK-5015,PAYLOAD,2023-01-25 06:00:00,15.15504384,0.0001364,53.2109,14.086,86.4349,181.3717,-0.050464,-0.00897122,0.0,0 STARLINK-5015,1 53931U 22119AX  23025.25001157 -.00897122  00000-0 -50464-1 0  9990,2 53931  53.2109  14.0860 0001364  86.4349 181.3717 15.15504384 19598,6897.585,95.018,520.391,518.509,0.0
53931.0,STARLINK-5015,PAYLOAD,2023-01-25 14:00:01,15.14902722,0.0001210999999999,53.2106,12.5741,86.6064,200.4113,-0.056251,-0.00976337,0.0,0 STARLINK-5015,1 53931U 22119AX  23025.58334491 -.00976337  00000-0 -56251-1 0  9992,2 53931  53.2106  12.5741 0001211  86.6064 200.4113 15.14902722  1303,6899.411,95.056,522.111,520.44,0.0
53931.0,STARLINK-5015,PAYLOAD,2023-01-25 22:00:00,15.14219851,0.0001283,53.2107,11.0632,97.3984,208.0722,-0.053198,-0.0091072,0.0,0 STARLINK-5015,1 53931U 22119AX  23025.91667824 -.00910720  00000-0 -53198-1 0  9999,2 53931  53.2107  11.0632 0001283  97.3984 208.0722 15.14219851 19703,6901.485,95.098,524.236,522.465,0.0
53931.0,STARLINK-5015,PAYLOAD,2023-01-26 14:00:01,15.12946374,0.0001197,53.2102,8.0493,85.8537,254.1561,-0.059157,-0.00971821,0.0,0 STARLINK-5015,1 53931U 22119AX  23026.58334491 -.00971821  00000-0 -59157-1 0  9994,2 53931  53.2102   8.0493 0001197  85.8537 254.1561 15.12946374  1304,6905.357,95.179,528.049,526.396,0.0
53931.0,STARLINK-5015,PAYLOAD,2023-01-27 06:00:00,15.11593725,0.0001281,53.2101,5.0412,83.3672,288.0729,-0.055724,-0.00887748,0.0,0 STARLINK-5015,1 53931U 22119AX  23027.25001157 -.00887748  00000-0 -55724-1 0  9999,2 53931  53.2101   5.0412 0001281  83.3672 288.0729 15.11593725 19902,6909.476,95.264,532.226,530.456,0.0
53931.0,STARLINK-5015,PAYLOAD,2023-01-27 14:00:01,15.10988719,0.0001189,53.2099,3.5380000000000003,82.4401,303.521,-0.061966,-0.00964271,0.0,0 STARLINK-5015,1 53931U 22119AX  23027.58334491 -.00964271  00000-0 -61966-1 0  9997,2 53931  53.2099   3.5380 0001189  82.4401 303.5210 15.10988719  1305,6911.32,95.302,534.007,532.364,0.0
53931.0,STARLINK-5015,PAYLOAD,2023-01-27 22:00:00,15.1032039,0.0001234,53.2099,2.0364,91.0824,308.6326,-0.060074,-0.00921053,0.0,0 STARLINK-5015,1 53931U 22119AX  23027.91667824 -.00921053  00000-0 -60074-1 0  9993,2 53931  53.2099   2.0364 0001234  91.0824 308.6326 15.10320390  1306,6913.359,95.344,536.077,534.371,0.0
53931.0,STARLINK-5015,PAYLOAD,2023-01-28 14:00:01,15.08923616,0.0001156,53.2114,359.0401,83.5722,341.3011,-0.0095353,-0.00149253,0.0,0 STARLINK-5015,1 53931U 22119AX  23028.58334491 -.00149253  00000-0 -95353-2 0  9991,2 53931  53.2114 359.0401 0001156  83.5722 341.3011 15.08923616 20108,6917.625,95.432,540.289,538.69,0.0
